H1 CPF 01  gfz 2022 09 19 12  7622 terrasarx 
H2 0702601  6201 31698    2022 09 19 12 59 42 2022 09 24 00 00 42   120 1 1  0 0 0
H9
10 0 59842  76302.000000  0    2567893.805  -3799836.519   5130381.634
10 0 59842  76422.000000  0    1996197.413  -3330822.043   5679699.731
10 0 59842  76542.000000  0    1398451.707  -2793406.703   6129128.859
10 0 59842  76662.000000  0     786221.841  -2196637.896   6470803.568
10 0 59842  76782.000000  0     171147.774  -1550793.065   6698751.080
10 0 59842  76902.000000  0    -435277.089   -867200.212   6808989.668
10 0 59842  77022.000000  0   -1021919.553   -158037.420   6799594.116
10 0 59842  77142.000000  0   -1578210.130    563884.069   6670727.001
10 0 59842  77262.000000  0   -2094332.863   1285350.707   6424635.983
10 0 59842  77382.000000  0   -2561398.697   1992987.485   6065617.110
10 0 59842  77502.000000  0   -2971599.607   2673505.442   5599944.708
10 0 59842  77622.000000  0   -3318341.681   3313952.621   5035768.351
10 0 59842  77742.000000  0   -3596355.105   3901963.303   4382976.344
10 0 59842  77862.000000  0   -3801777.953   4426001.627   3653027.595
10 0 59842  77982.000000  0   -3932211.827   4875594.111   2858753.204
10 0 59842  78102.000000  0   -3986748.050   5241545.391   2014130.154
10 0 59842  78222.000000  0   -3965962.532   5516130.813   1134031.939
10 0 59842  78342.000000  0   -3871881.017   5693262.371    233961.920
10 0 59842  78462.000000  0   -3707915.462   5768624.602   -670227.589
10 0 59842  78582.000000  0   -3478770.411   5739774.125  -1562625.209
10 0 59842  78702.000000  0   -3190322.982   5606199.892  -2427550.599
10 0 59842  78822.000000  0   -2849478.407   5369343.996  -3249836.489
10 0 59842  78942.000000  0   -2464008.856   5032583.496  -4015098.006
10 0 59842  79062.000000  0   -2042378.162   4601173.557  -4709984.289
10 0 59842  79182.000000  0   -1593556.778   4082155.066  -5322405.904
10 0 59842  79302.000000  0   -1126832.898   3484231.359  -5841737.364
10 0 59842  79422.000000  0    -651622.002   2817614.392  -6258993.044
10 0 59842  79542.000000  0    -177278.996   2093843.719  -6566971.465
10 0 59842  79662.000000  0     287082.016   1325584.571  -6760367.688
10 0 59842  79782.000000  0     732757.966    526407.396  -6835855.903
10 0 59842  79902.000000  0    1151616.297   -289447.988  -6792140.662
10 0 59842  80022.000000  0    1536239.501  -1107321.386  -6629975.597
10 0 59842  80142.000000  0    1880052.814  -1912388.589  -6352150.791
10 0 59842  80262.000000  0    2177435.046  -2689922.970  -5963450.485
10 0 59842  80382.000000  0    2423810.302  -3425560.141  -5470580.867
10 0 59842  80502.000000  0    2615720.050  -4105563.960  -4882065.637
10 0 59842  80622.000000  0    2750872.412  -4717084.410  -4208107.533
10 0 59842  80742.000000  0    2828168.268  -5248403.436  -3460422.308
10 0 59842  80862.000000  0    2847703.900  -5689167.766  -2652044.680
10 0 59842  80982.000000  0    2810749.496  -6030600.226  -1797105.954
10 0 59842  81102.000000  0    2719704.195  -6265684.693   -910588.559
10 0 59842  81222.000000  0    2578026.297  -6389319.433     -8059.766
10 0 59842  81342.000000  0    2390140.476  -6398432.270    894608.011
10 0 59842  81462.000000  0    2161325.623  -6292056.969   1781523.739
10 0 59842  81582.000000  0    1897584.573  -6071366.871   2637067.967
10 0 59842  81702.000000  0    1605499.338  -5739663.625   3446176.209
10 0 59842  81822.000000  0    1292076.278  -5302323.774   4194610.087
10 0 59842  81942.000000  0     964584.910  -4766704.828   4869210.980
10 0 59842  82062.000000  0     630394.701  -4142014.083   5458133.062
10 0 59842  82182.000000  0     296812.522  -3439140.277   5951050.534
10 0 59842  82302.000000  0     -29073.495  -2670453.692   6339333.456
10 0 59842  82422.000000  0    -340541.575  -1849582.139   6616191.569
10 0 59842  82542.000000  0    -631372.078   -991166.479   6776786.912
10 0 59842  82662.000000  0    -895969.793   -110597.916   6818314.419
10 0 59842  82782.000000  0   -1129470.567    776258.852   6740048.225
10 0 59842  82902.000000  0   -1327830.258   1653351.116   6543353.207
10 0 59842  83022.000000  0   -1487894.624   2504727.902   6231662.695
10 0 59842  83142.000000  0   -1607449.810   3314830.144   5810422.374
10 0 59842  83262.000000  0   -1685252.170   4068776.617   5287000.226
10 0 59842  83382.000000  0   -1721036.711   4752641.285   4670564.651
10 0 59842  83502.000000  0   -1715504.919   5353717.747   3971929.355
10 0 59842  83622.000000  0   -1670290.670   5860763.794   3203367.191
10 0 59842  83742.000000  0   -1587906.799   6264220.764   2378395.820
10 0 59842  83862.000000  0   -1471671.967   6556403.399   1511538.089
10 0 59842  83982.000000  0   -1325618.224   6731654.398    618061.275
10 0 59842  84102.000000  0   -1154383.002   6786458.965   -286298.315
10 0 59842  84222.000000  0    -963088.425   6719518.720  -1185621.084
10 0 59842  84342.000000  0    -757209.514   6531778.799  -2064095.960
10 0 59842  84462.000000  0    -542436.756   6226406.579  -2906306.463
10 0 59842  84582.000000  0    -324536.628   5808727.647  -3697504.664
10 0 59842  84702.000000  0    -109212.620   5286121.809  -4423870.205
10 0 59842  84822.000000  0      98029.709   4667880.469  -5072749.654
10 0 59842  84942.000000  0     292010.661   3965029.914  -5632871.214
10 0 59842  85062.000000  0     467994.381   3190124.493  -6094532.371
10 0 59842  85182.000000  0     621793.806   2357014.522  -6449757.115
10 0 59842  85302.000000  0     749861.246   1480595.531  -6692421.855
10 0 59842  85422.000000  0     849363.355    576542.975  -6818350.754
10 0 59842  85542.000000  0     918238.875   -338964.385  -6825380.023
10 0 59842  85662.000000  0     955238.727  -1249528.632  -6713390.482
10 0 59842  85782.000000  0     959947.715  -2138818.597  -6484307.542
10 0 59842  85902.000000  0     932788.425  -2990854.180  -6142072.468
10 0 59842  86022.000000  0     875006.678  -3790289.608  -5692584.206
10 0 59842  86142.000000  0     788637.786  -4522689.303  -5143606.711
10 0 59842  86262.000000  0     676456.030  -5174789.823  -4504645.808
10 0 59842  86382.000000  0     541906.425  -5734746.281  -3786796.234
10 0 59843    102.000000  0     389020.214  -6192357.097  -3002557.896
10 0 59843    222.000000  0     222315.875  -6539261.177  -2165624.896
10 0 59843    342.000000  0      46687.757  -6769104.221  -1290649.476
10 0 59843    462.000000  0    -132715.669  -6877667.481   -392983.624
10 0 59843    582.000000  0    -310620.788  -6862954.736    511595.046
10 0 59843    702.000000  0    -481761.858  -6725235.960   1407167.149
10 0 59843    822.000000  0    -641014.754  -6467046.368   2277960.519
10 0 59843    942.000000  0    -783527.893  -6093138.945   3108637.764
10 0 59843   1062.000000  0    -904845.746  -5610390.699   3884575.162
10 0 59843   1182.000000  0   -1001023.317  -5027667.092   4592124.181
10 0 59843   1302.000000  0   -1068728.870  -4355649.952   5218853.134
10 0 59843   1422.000000  0   -1105331.170  -3606632.613   5753765.428
10 0 59843   1542.000000  0   -1108970.738  -2794284.701   6187490.339
10 0 59843   1662.000000  0   -1078612.160  -1933394.040   6512440.141
10 0 59843   1782.000000  0   -1014077.463  -1039594.116   6722935.808
10 0 59843   1902.000000  0    -916061.137   -129078.098   6815301.580
10 0 59843   2022.000000  0    -786125.861    781695.192   6787925.013
10 0 59843   2142.000000  0    -626677.511   1676298.302   6641283.770
10 0 59843   2262.000000  0    -440920.454   2538631.040   6377937.735
10 0 59843   2382.000000  0    -232794.264   3353210.051   6002487.046
10 0 59843   2502.000000  0      -6893.286   4105448.497   5521496.707
10 0 59843   2622.000000  0     231630.135   4781920.877   4943387.375
10 0 59843   2742.000000  0     477177.762   5370609.523   4278294.669
10 0 59843   2862.000000  0     723829.611   5861125.929   3537893.986
10 0 59843   2982.000000  0     965477.597   6244902.132   2735201.989
10 0 59843   3102.000000  0    1195969.134   6515356.267   1884346.347
10 0 59843   3222.000000  0    1409252.379   6668011.292   1000310.718
10 0 59843   3342.000000  0    1599521.884   6700574.711     98664.285
10 0 59843   3462.000000  0    1761360.722   6612973.299   -804720.535
10 0 59843   3582.000000  0    1889874.723   6407343.659  -1693955.567
10 0 59843   3702.000000  0    1980816.200   6087979.422  -2553423.628
10 0 59843   3822.000000  0    2030694.002   5661235.979  -3368059.087
10 0 59843   3942.000000  0    2036867.118   5135394.851  -4123616.084
10 0 59843   4062.000000  0    1997619.478   4520491.066  -4806917.683
10 0 59843   4182.000000  0    1912214.177   3828110.170  -5406080.879
10 0 59843   4302.000000  0    1780927.267   3071160.973  -5910715.219
10 0 59843   4422.000000  0    1605059.776   2263627.966  -6312093.313
10 0 59843   4542.000000  0    1386928.387   1420309.552  -6603289.679
10 0 59843   4662.000000  0    1129836.368    556548.105  -6779289.463
10 0 59843   4782.000000  0     838023.610   -312045.817  -6837066.366
10 0 59843   4902.000000  0     516596.938  -1169870.468  -6775628.186
10 0 59843   5022.000000  0     171442.507  -2001605.790  -6596030.370
10 0 59843   5142.000000  0    -190878.371  -2792478.876  -6301360.626
10 0 59843   5262.000000  0    -563250.480  -3528522.587  -5896693.192
10 0 59843   5382.000000  0    -938139.768  -4196820.267  -5389009.516
10 0 59843   5502.000000  0   -1307740.526  -4785733.742  -4787089.525
10 0 59843   5622.000000  0   -1664133.409  -5285111.892  -4101371.406
10 0 59843   5742.000000  0   -1999451.045  -5686474.246  -3343780.496
10 0 59843   5862.000000  0   -2306047.501  -5983165.316  -2527529.623
10 0 59843   5982.000000  0   -2576668.078  -6170476.508  -1666893.608
10 0 59843   6102.000000  0   -2804615.573  -6245732.363   -776960.378
10 0 59843   6222.000000  0   -2983908.704  -6208337.058    126637.452
10 0 59843   6342.000000  0   -3109427.847  -6059778.458   1028004.061
99
